OBJECT_NAME,OBJECT_ID,EPOCH,MEAN_MOTION,ECCENTRICITY,INCLINATION,RA_OF_ASC_NODE,ARG_OF_PERICENTER,MEAN_ANOMALY,EPHEMERIS_TYPE,CLASSIFICATION_TYPE,NORAD_CAT_ID,ELEMENT_SET_NO,REV_AT_EPOCH,BSTAR,MEAN_MOTION_DOT,MEAN_MOTION_DDOT
SONATE-2,2024-043Q,2026-06-05T09:17:04.658208,15.57809925,.00067082,97.5534,306.0669,233.9854,126.0780,0,U,59112,999,12605,.50424109E-3,.37545E-3,0
MESAT1,2024-125G,2026-06-05T07:44:59.359200,15.61887563,.00083728,97.2304,13.5451,250.7624,109.2729,0,U,60209,999,10771,.57057229E-3,.49723E-3,0
OOV-CUBE (TUBSAT-30),2024-128F,2026-06-05T21:02:31.048800,15.02723262,.00460346,61.9953,265.0104,131.2422,229.2650,0,U,60240,999,10441,.24502362E-3,.315E-4,0
COLIBRI-S (RS67S),2024-199M,2026-06-05T22:33:16.933248,15.47247906,.00069119,97.3005,30.6942,331.3065,28.7804,0,U,61746,999,13567,.61787914E-3,.31478E-3,0
HORS 3 (RS81S),2024-199U,2026-06-05T21:20:44.757024,15.54175775,.0004719,97.2989,32.5109,341.5983,18.5099,0,U,61753,999,13580,.73237715E-3,.47781E-3,0
HORS 4 (RS82S),2024-199V,2026-06-05T21:11:40.322112,15.58609580,.00035258,97.2936,33.6351,333.7380,26.3697,0,U,61754,999,13588,.82731893E-3,.63706E-3,0
ARCTICSAT 1 (RS74S),2024-199AD,2026-06-05T01:02:22.230240,16.02262718,.00061877,97.2851,39.2907,198.3612,161.7446,0,U,61762,999,13617,.12270297E-2,.70668E-2,.23827113E-3
SIT-2086,2024-199AF,2026-06-05T22:02:27.974976,15.52290800,.00047677,97.2945,33.0562,314.1416,45.9444,0,U,61764,999,13268,.78240659E-3,.47696E-3,0
HYPERVIEW 1G (RS66S),2024-199AP,2026-06-05T22:33:13.081536,15.72925574,.000208,97.2887,36.1139,306.6952,53.4120,0,U,61772,999,13290,.11404914E-2,.157165E-2,0
ALTAIR (RS65S),2024-199AW,2026-06-05T21:55:27.303744,15.36793129,.00123159,97.3039,26.3397,355.3016,4.8110,0,U,61779,999,13538,.43237532E-3,.15516E-3,0
ASRTU-1 (AO-123),2024-199AY,2026-06-05T21:24:03.546144,15.35509859,.00135256,97.3010,25.6646,357.1690,2.9475,0,U,61781,999,13219,.29275584E-3,.10054E-3,0
SAMSAT-IONOSPHERE (RS75S),2024-199BB,2026-06-05T19:31:15.008160,15.56606917,.00066141,97.2956,32.4407,334.9597,25.1337,0,U,61784,999,13579,.81895135E-3,.58525E-3,0
RTU MIREA 1 (RS51S),2024-199BC,2026-06-05T22:13:51.901824,15.59838104,.00060633,97.2947,33.3319,329.1778,30.9122,0,U,61785,999,13271,.99078754E-3,.80139E-3,0
TEVEL2-4,2025-052D,2026-06-05T23:10:16.621824,15.34208415,.00042844,97.3920,53.3411,125.1509,235.0135,0,U,63213,999,6839,.78941234E-3,.26125E-3,0
TEVEL2-5,2025-052E,2026-06-05T11:06:33.638976,15.34015334,.00041146,97.3910,52.7894,126.1659,233.9965,0,U,63214,999,6831,.59243682E-3,.1945E-3,0
TEVEL2-6,2025-052F,2026-06-05T22:21:27.220320,15.34000998,.00043512,97.3912,53.2422,127.1358,233.0282,0,U,63215,999,6838,.81825751E-3,.26909E-3,0
TEVEL2-1,2025-052H,2026-06-05T10:25:58.838592,15.33457579,.00040057,97.3883,52.3839,136.2880,223.8680,0,U,63217,999,6829,.52119055E-3,.16797E-3,0
TEVEL2-3,2025-052J,2026-06-05T22:50:33.493920,15.33537694,.00042248,97.3885,52.9211,137.0459,223.1114,0,U,63218,999,6837,.78363705E-3,.25388E-3,0
TEVEL2-2,2025-052K,2026-06-05T22:58:14.499264,15.33493507,.00040281,97.3886,52.9080,136.8186,223.3373,0,U,63219,999,6837,.73355797E-3,.23721E-3,0
TEVEL2-9,2025-052AD,2026-06-05T23:39:05.097024,15.31547654,.00067504,97.3943,52.3358,163.3141,196.8324,0,U,63237,999,6831,.7358732E-3,.22396E-3,0
TEVEL2-7,2025-052AE,2026-06-05T10:28:01.709760,15.31236048,.00066809,97.3949,51.7085,165.6962,194.4470,0,U,63238,999,6822,.49200242E-3,.14789E-3,0
TEVEL2-8,2025-052AF,2026-06-04T15:50:28.971456,15.31195553,.00065639,97.3951,50.9120,168.5625,191.5767,0,U,63239,999,6810,.59749177E-3,.17961E-3,0
INNOSAT 16 (RS92S7),2025-155C,2026-06-05T21:58:48.552672,15.25336298,.0009238,97.4562,124.0812,216.9288,143.1314,0,U,64878,999,7895,.29931019E-3,.7481E-4,0
GEOSCAN 6 (RS92S6),2025-155D,2026-06-05T22:23:17.297376,15.29936795,.00068341,97.4555,125.4436,201.9787,158.1161,0,U,64879,999,7904,.49062421E-3,.14164E-3,0
239ALFEROV (RS61S),2025-155F,2026-06-05T20:38:03.879168,15.32631558,.00064047,97.4553,126.0325,198.1509,161.9505,0,U,64881,999,7907,.61509629E-3,.19342E-3,0
GEOSCAN 5 (RS92S5),2025-155R,2026-06-05T21:59:38.560128,15.32953507,.00050718,97.4545,126.2227,200.9664,159.1371,0,U,64891,999,7909,.61964039E-3,.19679E-3,0
GEOSCAN 4 (RS92S4),2025-155S,2026-06-05T21:38:28.409280,15.33100439,.0005128,97.4549,126.2532,201.7475,158.3550,0,U,64892,999,7909,.60299189E-3,.19236E-3,0
