SONATE-2                
1 59112U 24043Q   26156.38685947  .00037545  00000+0  50424-3 0  9992
2 59112  97.5534 306.0669 0006708 233.9854 126.0780 15.57809925126057
MESAT1                  
1 60209U 24125G   26156.32290925  .00049723  00000+0  57057-3 0  9994
2 60209  97.2304  13.5451 0008372 250.7624 109.2729 15.61887563107715
OOV-CUBE (TUBSAT-30)    
1 60240U 24128F   26156.87674824  .00003150  00000+0  24502-3 0  9999
2 60240  61.9953 265.0104 0046035 131.2422 229.2650 15.02723262104414
COLIBRI-S (RS67S)       
1 61746U 24199M   26156.93977932  .00031478  00000+0  61788-3 0  9993
2 61746  97.3005  30.6942 0006912 331.3065  28.7804 15.47247906135679
HORS 3 (RS81S)          
1 61753U 24199U   26156.88940691  .00047781  00000+0  73238-3 0  9994
2 61753  97.2989  32.5109 0004719 341.5983  18.5099 15.54175774135807
HORS 4 (RS82S)          
1 61754U 24199V   26156.88310558  .00063706  00000+0  82732-3 0  9992
2 61754  97.2936  33.6351 0003526 333.7380  26.3697 15.58609580135880
ARCTICSAT 1 (RS74S)     
1 61762U 24199AD  26156.04331285  .00706680  23827-3  12270-2 0  9999
2 61762  97.2851  39.2907 0006187 198.3612 161.7446 16.02262718136170
SIT-2086                
1 61764U 24199AF  26156.91837933  .00047696  00000+0  78241-3 0  9998
2 61764  97.2945  33.0562 0004768 314.1416  45.9444 15.52290800132688
HYPERVIEW 1G (RS66S)    
1 61772U 24199AP  26156.93973473  .00157165  00000+0  11405-2 0  9990
2 61772  97.2887  36.1139 0002080 306.6952  53.4120 15.72925574132907
ALTAIR (RS65S)          
1 61779U 24199AW  26156.91351045  .00015516  00000+0  43238-3 0  9993
2 61779  97.3039  26.3397 0012316 355.3016   4.8110 15.36793129135389
ASRTU-1 (AO-123)        
1 61781U 24199AY  26156.89170771  .00010054  00000+0  29276-3 0  9996
2 61781  97.3010  25.6646 0013526 357.1690   2.9475 15.35509859132195
SAMSAT-IONOSPHERE (RS7*)
1 61784U 24199BB  26156.81336815  .00058525  00000+0  81895-3 0  9994
2 61784  97.2956  32.4407 0006614 334.9597  25.1337 15.56606917135795
RTU MIREA 1 (RS51S)     
1 61785U 24199BC  26156.92629515  .00080139  00000+0  99079-3 0  9998
2 61785  97.2947  33.3319 0006063 329.1778  30.9122 15.59838104132716
TEVEL2-4                
1 63213U 25052D   26156.96547015  .00026125  00000+0  78941-3 0  9993
2 63213  97.3920  53.3411 0004284 125.1509 235.0135 15.34208415 68393
TEVEL2-5                
1 63214U 25052E   26156.46288934  .00019450  00000+0  59244-3 0  9999
2 63214  97.3910  52.7894 0004114 126.1659 233.9965 15.34015334 68316
TEVEL2-6                
1 63215U 25052F   26156.93156505  .00026909  00000+0  81826-3 0  9998
2 63215  97.3912  53.2422 0004351 127.1358 233.0282 15.34000997 68381
TEVEL2-1                
1 63217U 25052H   26156.43470878  .00016797  00000+0  52119-3 0  9994
2 63217  97.3883  52.3839 0004005 136.2880 223.8680 15.33457579 68299
TEVEL2-3                
1 63218U 25052J   26156.95177654  .00025388  00000+0  78364-3 0  9994
2 63218  97.3885  52.9211 0004225 137.0459 223.1114 15.33537694 68378
TEVEL2-2                
1 63219U 25052K   26156.95711226  .00023721  00000+0  73356-3 0  9999
2 63219  97.3886  52.9080 0004028 136.8186 223.3373 15.33493507 68372
TEVEL2-9                
1 63237U 25052AD  26156.98547566  .00022396  00000+0  73587-3 0  9999
2 63237  97.3943  52.3358 0006750 163.3141 196.8324 15.31547654 68313
TEVEL2-7                
1 63238U 25052AE  26156.43613090  .00014789  00000+0  49200-3 0  9998
2 63238  97.3949  51.7085 0006680 165.6962 194.4470 15.31236048 68226
TEVEL2-8                
1 63239U 25052AF  26155.66005754  .00017961  00000+0  59749-3 0  9999
2 63239  97.3951  50.9120 0006563 168.5625 191.5767 15.31195553 68108
INNOSAT 16 (RS92S7)     
1 64878U 25155C   26156.91583972  .00007481  00000+0  29931-3 0  9991
2 64878  97.4562 124.0812 0009238 216.9288 143.1314 15.25336298 78954
GEOSCAN 6 (RS92S6)      
1 64879U 25155D   26156.93283909  .00014164  00000+0  49062-3 0  9994
2 64879  97.4555 125.4436 0006834 201.9787 158.1161 15.29936795 79040
239ALFEROV (RS61S)      
1 64881U 25155F   26156.85976712  .00019342  00000+0  61510-3 0  9994
2 64881  97.4553 126.0325 0006405 198.1509 161.9505 15.32631558 79078
GEOSCAN 5 (RS92S5)      
1 64891U 25155R   26156.91641852  .00019679  00000+0  61964-3 0  9992
2 64891  97.4545 126.2227 0005072 200.9664 159.1371 15.32953507 79099
GEOSCAN 4 (RS92S4)      
1 64892U 25155S   26156.90171770  .00019236  00000+0  60299-3 0  9998
2 64892  97.4549 126.2532 0005128 201.7475 158.3550 15.33100439 79093
